ONEWEB-0162             
1 48056U 21025Q   26160.51211541  .00000350  00000+0  92260-3 0  9997
2 48056  87.8953 321.7521 0001986  94.2088 265.9269 13.13469788252537
ONEWEB-0155             
1 48057U 21025R   26160.44284221  .00000355  00000+0  93618-3 0  9998
2 48057  87.8954 321.7619 0001706  99.7348 260.3974 13.13469582252664
ONEWEB-0149             
1 48058U 21025S   26160.46485118 -.00000190  00000+0 -55644-3 0  9995
2 48058  87.8956 321.7606 0002023  93.4794 266.6567 13.13469699252477
ONEWEB-0148             
1 48059U 21025T   26160.50378675  .00000287  00000+0  75208-3 0  9993
2 48059  87.8947 321.7607 0002400  96.3777 263.7626 13.13470438252603
ONEWEB-0160             
1 48060U 21025U   26160.44453701  .00000294  00000+0  76942-3 0  9996
2 48060  87.8949 321.7683 0001646  70.2576 289.8731 13.13470284252548
ONEWEB-0163             
1 48061U 21025V   26160.50547536  .00000327  00000+0  86154-3 0  9997
2 48061  87.8953 321.7502 0001865 104.0777 256.0560 13.13471387252671
ONEWEB-0159             
1 48062U 21025W   26160.49701154  .00000171  00000+0  43459-3 0  9992
2 48062  87.8957 321.7455 0001826 102.8037 257.3297 13.13471501252595
ONEWEB-0164             
1 48063U 21025X   26160.47838470 -.00000220  00000+0 -63784-3 0  9993
2 48063  87.8960 321.7556 0001753  93.0731 267.0599 13.13469953252572
ONEWEB-0167             
1 48064U 21025Y   26160.50631036  .00000328  00000+0  86189-3 0  9998
2 48064  87.8946 321.7604 0001439 115.3493 244.7785 13.13472166252563
ONEWEB-0166             
1 48065U 21025Z   26160.45298979  .00000165  00000+0  41709-3 0  9996
2 48065  87.8959 321.7416 0001990  96.8629 263.2726 13.13470935252636
ONEWEB-0151             
1 48066U 21025AA  26160.45468517  .00000105  00000+0  25320-3 0  9999
2 48066  87.8948 321.7587 0001681  96.5427 263.5893 13.13469470252577
ONEWEB-0170             
1 48067U 21025AB  26160.46315000 -.00000158  00000+0 -46838-3 0  9996
2 48067  87.8949 321.7586 0001392  86.8896 273.2392 13.13469633252538
ONEWEB-0168             
1 48068U 21025AC  26160.44791818  .00000238  00000+0  61761-3 0  9999
2 48068  87.8958 321.7613 0001887 100.1741 259.9601 13.13469330252547
ONEWEB-0173             
1 48069U 21025AD  26160.43945677  .00000405  00000+0  10739-2 0  9997
2 48069  87.8951 321.7652 0001765 107.5978 252.5344 13.13470042252783
ONEWEB-0171             
1 48070U 21025AE  26160.47669404 -.00000252  00000+0 -72526-3 0  9999
2 48070  87.8947 321.7661 0001719  95.0788 265.0537 13.13470832252600
ONEWEB-0172             
1 48071U 21025AF  26160.45637817  .00000061  00000+0  13196-3 0  9995
2 48071  87.8954 321.7594 0001691  99.4740 260.6580 13.13470263253494
ONEWEB-0174             
1 48072U 21025AG  26160.43777181  .00000400  00000+0  10617-2 0  9994
2 48072  87.8952 321.7628 0001959  96.5035 263.6317 13.13470644252812
ONEWEB-0175             
1 48073U 21025AH  26160.46823316 -.00000168  00000+0 -49624-3 0  9994
2 48073  87.8959 321.7401 0001463  96.0663 264.0632 13.13470141252470
ONEWEB-0177             
1 48074U 21025AJ  26160.48007895 -.00000251  00000+0 -72219-3 0  9992
2 48074  87.8955 321.7570 0001982 100.1318 260.0035 13.13471022252667
ONEWEB-0178             
1 48075U 21025AK  26160.49882794  .00000196  00000+0  50259-3 0  9999
2 48075  87.8939 321.7669 0001616 101.9942 258.1368 13.13472849252716
ONEWEB-0108             
1 48076U 21025AL  26160.45807455 -.00000010  00000+0 -61196-4 0  9997
2 48076  87.8959 321.7521 0001946  88.8549 271.2803 13.13469503252632
ONEWEB-0169             
1 48077U 21025AM  26160.49023727 -.00000062  00000+0 -20490-3 0  9992
2 48077  87.8949 321.7546 0001939  95.9134 264.2216 13.13470545251299
ONEWEB-0176             
1 48210U 21031A   26160.33886256  .00000110  00000+0  26219-3 0  9992
2 48210  87.8957 291.2637 0001813 102.6059 257.5274 13.14503143247287
ONEWEB-0184             
1 48211U 21031B   26160.38801244 -.00000152  00000+0 -44334-3 0  9998
2 48211  87.8964 291.2543 0001233 119.3167 240.8085 13.14502947247267
ONEWEB-0179             
1 48212U 21031C   26160.44374355  .00000238  00000+0  73161-4 0  9998
2 48212  87.8984 288.8367 0218646 282.7310  74.9525 14.25518159247944
ONEWEB-0180             
1 48213U 21031D   26160.39118814 -.00000115  00000+0 -34597-3 0  9994
2 48213  87.8963 291.2503 0002037 113.5419 246.5925 13.14503062247190
ONEWEB-0218             
1 48214U 21031E   26160.41338948  .00000080  00000+0  18062-3 0  9998
2 48214  87.8965 291.2444 0001481 128.0550 232.0713 13.14502435247352
ONEWEB-0209             
1 48215U 21031F   26160.40227383 -.00000082  00000+0 -25691-3 0  9998
2 48215  87.8956 291.2644 0002038 105.4813 254.6542 13.14505285247351
ONEWEB-0198             
1 48216U 21031G   26160.38657006 -.00000176  00000+0 -50904-3 0  9994
2 48216  87.8949 291.2672 0001860 113.7721 246.3604 13.14502531247467
ONEWEB-0189             
1 48217U 21031H   26160.39911933 -.00000093  00000+0 -28461-3 0  9999
2 48217  87.8961 291.2501 0001865 110.8497 249.2832 13.14503286247201
