OBJECT_NAME,OBJECT_ID,EPOCH,MEAN_MOTION,ECCENTRICITY,INCLINATION,RA_OF_ASC_NODE,ARG_OF_PERICENTER,MEAN_ANOMALY,EPHEMERIS_TYPE,CLASSIFICATION_TYPE,NORAD_CAT_ID,ELEMENT_SET_NO,REV_AT_EPOCH,BSTAR,MEAN_MOTION_DOT,MEAN_MOTION_DDOT
ONEWEB-0162,2021-025Q,2026-06-09T12:17:26.771424,13.13469788,.0001986,87.8953,321.7521,94.2088,265.9269,0,U,48056,999,25253,.9226E-3,.35E-5,0
ONEWEB-0155,2021-025R,2026-06-09T10:37:41.566944,13.13469582,.0001706,87.8954,321.7619,99.7348,260.3974,0,U,48057,999,25266,.93618E-3,.355E-5,0
ONEWEB-0149,2021-025S,2026-06-09T11:09:23.141952,13.13469699,.0002023,87.8956,321.7606,93.4794,266.6567,0,U,48058,999,25247,-.55644E-3,-.19E-5,0
ONEWEB-0148,2021-025T,2026-06-09T12:05:27.175200,13.13470438,.00024,87.8947,321.7607,96.3777,263.7626,0,U,48059,999,25260,.75208E-3,.287E-5,0
ONEWEB-0160,2021-025U,2026-06-09T10:40:07.997664,13.13470284,.0001646,87.8949,321.7683,70.2576,289.8731,0,U,48060,999,25254,.76942E-3,.294E-5,0
ONEWEB-0163,2021-025V,2026-06-09T12:07:53.071104,13.13471387,.0001865,87.8953,321.7502,104.0777,256.0560,0,U,48061,999,25267,.86154E-3,.327E-5,0
ONEWEB-0159,2021-025W,2026-06-09T11:55:41.797056,13.13471501,.0001826,87.8957,321.7455,102.8037,257.3297,0,U,48062,999,25259,.43459E-3,.171E-5,0
ONEWEB-0164,2021-025X,2026-06-09T11:28:52.438080,13.13469953,.0001753,87.8960,321.7556,93.0731,267.0599,0,U,48063,999,25257,-.63784E-3,-.22E-5,0
ONEWEB-0167,2021-025Y,2026-06-09T12:09:05.215104,13.13472166,.0001439,87.8946,321.7604,115.3493,244.7785,0,U,48064,999,25256,.86189E-3,.328E-5,0
ONEWEB-0166,2021-025Z,2026-06-09T10:52:18.317856,13.13470935,.000199,87.8959,321.7416,96.8629,263.2726,0,U,48065,999,25263,.41709E-3,.165E-5,0
ONEWEB-0151,2021-025AA,2026-06-09T10:54:44.798688,13.13469470,.0001681,87.8948,321.7587,96.5427,263.5893,0,U,48066,999,25257,.2532E-3,.105E-5,0
ONEWEB-0170,2021-025AB,2026-06-09T11:06:56.160000,13.13469633,.0001392,87.8949,321.7586,86.8896,273.2392,0,U,48067,999,25253,-.46838E-3,-.158E-5,0
ONEWEB-0168,2021-025AC,2026-06-09T10:45:00.130752,13.13469330,.0001887,87.8958,321.7613,100.1741,259.9601,0,U,48068,999,25254,.61761E-3,.238E-5,0
ONEWEB-0173,2021-025AD,2026-06-09T10:32:49.064928,13.13470042,.0001765,87.8951,321.7652,107.5978,252.5344,0,U,48069,999,25278,.10739E-2,.405E-5,0
ONEWEB-0171,2021-025AE,2026-06-09T11:26:26.365056,13.13470832,.0001719,87.8947,321.7661,95.0788,265.0537,0,U,48070,999,25260,-.72526E-3,-.252E-5,0
ONEWEB-0172,2021-025AF,2026-06-09T10:57:11.073888,13.13470263,.0001691,87.8954,321.7594,99.4740,260.6580,0,U,48071,999,25349,.13196E-3,.61E-6,0
ONEWEB-0174,2021-025AG,2026-06-09T10:30:23.484384,13.13470644,.0001959,87.8952,321.7628,96.5035,263.6317,0,U,48072,999,25281,.10617E-2,.4E-5,0
ONEWEB-0175,2021-025AH,2026-06-09T11:14:15.345024,13.13470141,.0001463,87.8959,321.7401,96.0663,264.0632,0,U,48073,999,25247,-.49624E-3,-.168E-5,0
ONEWEB-0177,2021-025AJ,2026-06-09T11:31:18.821280,13.13471022,.0001982,87.8955,321.7570,100.1318,260.0035,0,U,48074,999,25266,-.72219E-3,-.251E-5,0
ONEWEB-0178,2021-025AK,2026-06-09T11:58:18.734016,13.13472849,.0001616,87.8939,321.7669,101.9942,258.1368,0,U,48075,999,25271,.50259E-3,.196E-5,0
ONEWEB-0108,2021-025AL,2026-06-09T10:59:37.641120,13.13469503,.0001946,87.8959,321.7521,88.8549,271.2803,0,U,48076,999,25263,-.61196E-4,-.1E-6,0
ONEWEB-0169,2021-025AM,2026-06-09T11:45:56.500128,13.13470545,.0001939,87.8949,321.7546,95.9134,264.2216,0,U,48077,999,25129,-.2049E-3,-.62E-6,0
ONEWEB-0176,2021-031A,2026-06-09T08:07:57.725184,13.14503143,.0001813,87.8957,291.2637,102.6059,257.5274,0,U,48210,999,24728,.26219E-3,.11E-5,0
ONEWEB-0184,2021-031B,2026-06-09T09:18:44.274816,13.14502947,.0001233,87.8964,291.2543,119.3167,240.8085,0,U,48211,999,24726,-.44334E-3,-.152E-5,0
ONEWEB-0179,2021-031C,2026-06-09T10:38:59.442720,14.25518159,.0218646,87.8984,288.8367,282.7310,74.9525,0,U,48212,999,24794,.73161E-4,.238E-5,0
ONEWEB-0180,2021-031D,2026-06-09T09:23:18.655296,13.14503062,.0002037,87.8963,291.2503,113.5419,246.5925,0,U,48213,999,24719,-.34597E-3,-.115E-5,0
ONEWEB-0218,2021-031E,2026-06-09T09:55:16.851072,13.14502435,.0001481,87.8965,291.2444,128.0550,232.0713,0,U,48214,999,24735,.18062E-3,.8E-6,0
ONEWEB-0209,2021-031F,2026-06-09T09:39:16.458912,13.14505285,.0002038,87.8956,291.2644,105.4813,254.6542,0,U,48215,999,24735,-.25691E-3,-.82E-6,0
ONEWEB-0198,2021-031G,2026-06-09T09:16:39.653184,13.14502531,.000186,87.8949,291.2672,113.7721,246.3604,0,U,48216,999,24746,-.50904E-3,-.176E-5,0
ONEWEB-0189,2021-031H,2026-06-09T09:34:43.910112,13.14503286,.0001865,87.8961,291.2501,110.8497,249.2832,0,U,48217,999,24720,-.28461E-3,-.93E-6,0
